#aV2007  9  6  0  0   .00000000      96 DD+AD WGS84 FIT  NGA
## 1443 345600.00000000   900.00000000 54349  .0000000000000
+   31     1  2  3  4  5  6  7  8  9 10 11 12 13 14 16 17 18
+         19 20 21 22 23 24 25 26 27 28 29 30 31 32  0  0  0
+          0  0  0  0  0  0  0  0  0  0  0  0  0  0  0  0  0
+          0  0  0  0  0  0  0  0  0  0  0  0  0  0  0  0  0
+          0  0  0  0  0  0  0  0  0  0  0  0  0  0  0  0  0
++         0  0  0  0  0  0  0  0  0  0  0  0  0  0  0  0  0
++         0  0  0  0  0  0  0  0  0  0  0  0  0  0  0  0  0
++         0  0  0  0  0  0  0  0  0  0  0  0  0  0  0  0  0
++         0  0  0  0  0  0  0  0  0  0  0  0  0  0  0  0  0
++         0  0  0  0  0  0  0  0  0  0  0  0  0  0  0  0  0
%c cc cc ccc ccc cccc cccc cccc cccc ccccc ccccc ccccc ccccc
%c cc cc ccc ccc cccc cccc cccc cccc ccccc ccccc ccccc ccccc
%f  0.0000000  0.000000000  0.00000000000  0.000000000000000
%f  0.0000000  0.000000000  0.00000000000  0.000000000000000
%i    0    0    0    0      0      0      0      0         0
%i    0    0    0    0      0      0      0      0         0
/*      NGA, ST. LOUIS,MO.                                  
/*   EPHEMERIS COMPUTED FROM  3 DAYS OF DATA                
/* CCCCCCCCCCCCCCCCCCCCCCCCCCCCCCCCCCCCCCCCCCCCCCCCCCCCCCCCC
/* CCCCCCCCCCCCCCCCCCCCCCCCCCCCCCCCCCCCCCCCCCCCCCCCCCCCCCCCC
*  2007  9  6  8  0   .00000000                                                 
P  1 -14567.428872   -168.333783 -21997.902531    150.787328                    
V  1  -3734.363852 -28116.453708   2588.913158       .024509                    
P  2  22392.418855 -10623.748202  -9308.405333    134.457919                    
V  2  -6694.147946  10078.718516 -28495.082618       .027695                    
P  3 -13354.841704   9503.091571  20627.240039    111.825289                    
V  3  -8590.509972 -25507.517389   6466.731150       .053520                    
P  4  20112.366304   -275.608105 -17588.985773     -3.387789                    
V  4 -15835.877335  15531.142022 -18066.986271      -.027893                    
P  5  -2238.974506 -16403.390951 -21049.135809    363.097223                    
V  5  25559.905903   5766.121965  -7152.483610       .350421                    
P  6  -7401.896581 -25422.090072   2050.512835    246.619357                    
V  6   3044.763272  -3157.712699 -31019.531104      -.007452                    
P  7  -9335.009958 -24573.239970   3968.349037   -125.198882                    
V  7   2297.210421  -5389.607281 -30668.965373       .280924                    
P  8  13850.819704   7401.623123  21379.986071   -121.694986                    
V  8 -21285.771548  17057.794936   7400.827168      -.014573                    
P  9  12533.054399 -21249.304899 -10186.566171     86.458643                    
V  9  10450.616002  -6538.533666  28393.909307       .016347                    
P 10  21657.836696  -3001.082153  15183.550997     41.382685                    
V 10  17496.201795   8426.129965 -22803.637979      -.515485                    
P 11  -8809.410176  23024.122085  -9603.734330     23.276860                    
V 11 -11318.007893   6619.909287  26880.055345       .004788                    
P 12   5370.679591 -14156.051517 -21729.329479    -55.191491                    
V 12  26233.370220   9225.813943    535.265236      -.012955                    
P 13   5615.942254  25829.538331   2641.565485    204.221301                    
V 13  -1160.375997   3686.954889 -32248.894397       .029625                    
P 14 -14136.661788 -13713.539848 -17777.193999     39.761414                    
V 14  -2617.736455 -22526.005450  19268.797111       .022309                    
P 16 -24287.328581   -784.741497  10988.236919    173.946441                    
V 16 -12178.680260  -6811.872633 -27432.219433       .022816                    
P 17  14399.896685  15277.067544 -16331.398114     55.494913                    
V 17   1931.656704  20710.615719  20916.943718      -.011565                    
P 18 -15246.108130 -16869.878194  14169.161862   -237.442133                    
V 18  17139.432124   4537.637790  23763.516962       .017017                    
P 19  -8630.522991  19701.278356  15585.284239     63.339468                    
V 19  -4476.506878 -19280.865572  22168.029503       .025444                    
P 20  -1328.305492  15710.838073 -21480.137165    -29.188437                    
V 20 -25799.575078  -8188.117387  -4382.256638      -.005629                    
P 21  -5563.399930 -15331.080092  21017.838996     78.416261                    
V 21  21240.127194 -15956.363139  -6647.134286      -.001765                    
P 22 -23653.315558 -11809.931573   2954.593911    196.823661                    
V 22   4461.504118  -1548.951455  31174.425570       .009587                    
P 23   -636.033907  25289.051517  -7774.481045    198.413180                    
V 23  -4274.884895  -9184.773812 -30041.577361       .038799                    
P 24   7233.203554 -20097.216736  16166.422098     28.411777                    
V 24  16946.596622 -10887.175589 -21097.352950       .030105                    
P 25   -380.152947  19280.060038  18693.049195    430.901680                    
V 25 -16822.094462  15649.040714 -16661.550635       .109498                    
P 26   9449.794115 -16268.625524  18055.648019     17.755878                    
V 26   5011.647227  23507.593331  18643.337914       .136046                    
P 27   6484.682727  14717.562090  21756.756313    133.349882                    
V 27 -19119.918652  17825.613466  -6770.559469       .023554                    
P 28  22313.334399  13337.863933   6622.409171     -6.385426                    
V 28  -8187.193344   -626.059906  30090.602108      -.007109                    
P 29  11608.487904 -12018.576977  20740.990524      5.491931                    
V 29   5616.385684  25315.556848  12016.075036       .001986                    
P 30  -8644.335659 -16910.814529 -18936.231576     44.839241                    
V 30  22776.650098   5466.831019 -15441.537665       .011706                    
P 31 -20951.367456   3729.799420 -15739.290337     10.461619                    
V 31  14083.879499 -14760.935394 -21899.230574      -.013080                    
P 32 -24577.927204  -4878.311531  -8127.581035     46.497829                    
V 32  -9040.406282  -6723.668628  29800.335745       .172627                    
EOF
